[{"OBJECT_NAME":"STARLINK-3270","OBJECT_ID":"2021-125AV","EPOCH":"2026-03-09T17:25:03.092736","MEAN_MOTION":15.08836858,"ECCENTRICITY":0.0001287,"INCLINATION":53.2165,"RA_OF_ASC_NODE":238.9602,"ARG_OF_PERICENTER":77.3274,"MEAN_ANOMALY":282.7862,"EPHEMERIS_TYPE":0,"CLASSIFICATION_TYPE":"U","NORAD_CAT_ID":50199,"ELEMENT_SET_NO":999,"REV_AT_EPOCH":23673,"BSTAR":3.5514258e-5,"MEAN_MOTION_DOT":2.77e-6,"MEAN_MOTION_DDOT":0},{"OBJECT_NAME":"CAPELLA-14 (ACADIA-4)","OBJECT_ID":"2024-066C","EPOCH":"2026-03-09T23:09:20.349504","MEAN_MOTION":15.10553849,"ECCENTRICITY":0.00038755,"INCLINATION":45.6044,"RA_OF_ASC_NODE":58.5628,"ARG_OF_PERICENTER":114.4902,"MEAN_ANOMALY":245.6389,"EPHEMERIS_TYPE":0,"CLASSIFICATION_TYPE":"U","NORAD_CAT_ID":59444,"ELEMENT_SET_NO":999,"REV_AT_EPOCH":9746,"BSTAR":0.0014196844,"MEAN_MOTION_DOT":0.00023618,"MEAN_MOTION_DDOT":0}]
